QIANFAN-25              
1 61558U 24185G   25314.90799593  .00000799  00000+0  48012-3 0  9993
2 61558  88.9793  81.7848 0010795  53.0216 307.1953 14.05862982 65033
QIANFAN-26              
1 61559U 24185H   25314.86673101  .00000328  00000+0  31513-3 0  9991
2 61559  88.9792  83.1841 0007553 106.3548 253.8449 13.77783752 64288
QIANFAN-27              
1 61560U 24185J   25314.91998799  .00001186  00000+0  47912-3 0  9995
2 61560  88.9788  80.6675 0009083  45.7742 314.4196 14.27270180 65628
QIANFAN-28              
1 61561U 24185K   25314.91737155  .00001566  00000+0  62665-3 0  9997
2 61561  88.9806  80.6683 0008305  46.8339 313.3549 14.27930071 65632
QIANFAN-29              
1 61562U 24185L   25314.89190854  .00000277  00000+0  40970-3 0  9997
2 61562  88.9767  84.5951 0011384 137.7556 222.4474 13.50994145 63498
QIANFAN-30              
1 61563U 24185M   25314.91679272  .00000283  00000+0  42605-3 0  9991
2 61563  88.9787  84.1057 0009064 123.6433 236.5584 13.49971018 63775
QIANFAN-31              
1 61564U 24185N   25314.92462318  .00000327  00000+0  43591-3 0  9998
2 61564  88.9772  83.9574 0008737 119.3760 240.8268 13.57948335 63842
QIANFAN-32              
1 61565U 24185P   25314.90279477  .00000160  00000+0  23020-3 0  9999
2 61565  88.9830  84.2316 0010449 147.9681 212.2107 13.50719647 63747
